NORAD_CAT_ID,OBJECT_NAME,OBJECT_TYPE,EPOCH,MEAN_MOTION,ECCENTRICITY,INCLINATION,RA_OF_ASC_NODE,ARG_OF_PERICENTER,MEAN_ANOMALY,BSTAR,MEAN_MOTION_DOT,MEAN_MOTION_DDOT,TLE_LINE0,TLE_LINE1,TLE_LINE2,SEMIMAJOR_AXIS,PERIOD,APOGEE,PERIGEE,DECAYED
52636.0,STARLINK-3967,PAYLOAD,2022-11-11 17:20:48,15.08849155,0.0002176,53.2179,318.8227,35.0733,325.0402,0.00087681,0.00013698,0.0,0 STARLINK-3967,1 52636U 22052AQ  22315.72278558  .00013698  00000-0  87681-3 0  9990,2 52636  53.2179 318.8227 0002176  35.0733 325.0402 15.08849155 28102,6917.852,95.437,541.2230000000002,538.212,0.0
52636.0,STARLINK-3967,PAYLOAD,2022-11-12 12:25:25,15.08861748,0.0002375,53.218,315.254,41.9009,318.2164,0.0003952,6.011e-05,0.0,0 STARLINK-3967,1 52636U 22052AQ  22316.51765488  .00006011  00000-0  39520-3 0  9991,2 52636  53.2180 315.2540 0002375  41.9009 318.2164 15.08861748 27847,6917.814,95.436,541.322,538.036,0.0
52636.0,STARLINK-3967,PAYLOAD,2022-11-12 17:11:34,15.08864655,0.0002232,53.2175,314.3622,39.6742,320.4413,0.00043245,6.606e-05,0.0,0 STARLINK-3967,1 52636U 22052AQ  22316.71637073  .00006606  00000-0  43245-3 0  9990,2 52636  53.2175 314.3622 0002232  39.6742 320.4413 15.08864655 27877,6917.805,95.436,541.214,538.126,0.0
52636.0,STARLINK-3967,PAYLOAD,2022-11-13 02:43:53,15.08866762,0.0003034,53.2175,312.5779,52.4726,307.6541,0.00048315,7.415e-05,0.0,0 STARLINK-3967,1 52636U 22052AQ  22317.11380968  .00007415  00000-0  48315-3 0  9995,2 52636  53.2175 312.5779 0003034  52.4726 307.6541 15.08866762 28316,6917.799,95.436,541.762,537.565,0.0
52636.0,STARLINK-3967,PAYLOAD,2022-11-13 09:05:25,15.08850139,0.0002034,53.2181,311.3891,37.2308,322.8824,1.7692e-06,-2.6e-06,0.0,0 STARLINK-3967,1 52636U 22052AQ  22317.37876842 -.00000260  00000-0  17692-5 0  9992,2 52636  53.2181 311.3891 0002034  37.2308 322.8824 15.08850139 28359,6917.849,95.437,541.121,538.307,0.0
52636.0,STARLINK-3967,PAYLOAD,2022-11-13 17:02:21,15.08847615,0.0002374,53.2176,309.9019,41.9907,318.1267,0.00031676,4.758e-05,0.0,0 STARLINK-3967,1 52636U 22052AQ  22317.70996974  .00004758  00000-0  31676-3 0  9999,2 52636  53.2176 309.9019 0002374  41.9907 318.1267 15.08847615 28020,6917.857,95.437,541.364,538.08,0.0
52636.0,STARLINK-3967,PAYLOAD,2022-11-14 08:56:13,15.08831823,0.0002221,53.2177,306.9282,43.1421,316.9745,0.00020599,2.991e-05,0.0,0 STARLINK-3967,1 52636U 22052AQ  22318.37237684  .00002991  00000-0  20599-3 0  9998,2 52636  53.2177 306.9282 0002221  43.1421 316.9745 15.08831823 28500,6917.905,95.438,541.307,538.234,0.0
52636.0,STARLINK-3967,PAYLOAD,2022-11-14 16:53:09,15.08838996,0.0002289,53.218,305.4418,42.6771,317.4399,0.00015861,2.237e-05,0.0,0 STARLINK-3967,1 52636U 22052AQ  22318.70357690  .00002237  00000-0  15861-3 0  9994,2 52636  53.2180 305.4418 0002289  42.6771 317.4399 15.08838996 28177,6917.8830000000025,95.438,541.332,538.165,0.0
52636.0,STARLINK-3967,PAYLOAD,2022-11-15 02:25:27,15.08852163,0.0002309,53.2187,303.6581,42.3766,317.7404,0.000435,6.644e-05,0.0,0 STARLINK-3967,1 52636U 22052AQ  22319.10101142  .00006644  00000-0  43500-3 0  9995,2 52636  53.2187 303.6581 0002309  42.3766 317.7404 15.08852163 28610,6917.843000000003,95.437,541.306,538.111,0.0
52636.0,STARLINK-3967,PAYLOAD,2022-11-15 08:47:00,15.08848851,0.000229,53.2191,302.4692,39.2913,320.8245,0.00037468,5.681e-05,0.0,0 STARLINK-3967,1 52636U 22052AQ  22319.36597269  .00005681  00000-0  37468-3 0  9998,2 52636  53.2191 302.4692 0002290  39.2913 320.8245 15.08848851 28272,6917.853,95.437,541.303,538.134,0.0
52636.0,STARLINK-3967,PAYLOAD,2022-11-16 10:13:10,15.08831842,0.0002307,53.2178,297.7108,36.6449,323.47,-1.7042e-05,-5.59e-06,0.0,0 STARLINK-3967,1 52636U 22052AQ  22320.42581771 -.00000559  00000-0 -17042-4 0  9996,2 52636  53.2178 297.7108 0002307  36.6449 323.4700 15.08831842 28816,6917.905,95.438,541.366,538.174,0.0
52636.0,STARLINK-3967,PAYLOAD,2022-11-17 08:28:34,15.08839683,0.0002349,53.2181,293.5486,39.3696,320.7466,6.8494e-05,8.02e-06,0.0,0 STARLINK-3967,1 52636U 22052AQ  22321.35317586  .00000802  00000-0  68494-4 0  9996,2 52636  53.2181 293.5486 0002349  39.3696 320.7466 15.08839683 28958,6917.880999999999,95.438,541.371,538.121,0.0
52636.0,STARLINK-3967,PAYLOAD,2022-11-17 10:03:57,15.0883582,0.0002302,53.2174,293.2511,38.6085,321.5071,9.2635e-06,-1.41e-06,0.0,0 STARLINK-3967,1 52636U 22052AQ  22321.41941693 -.00000141  00000-0  92635-5 0  9997,2 52636  53.2174 293.2511 0002302  38.6085 321.5071 15.08835820 28588,6917.893,95.438,541.351,538.1659999999998,0.0
52636.0,STARLINK-3967,PAYLOAD,2022-11-18 09:54:44,15.08833539,0.0002304,53.2179,288.7901,38.3576,321.758,-1.6144e-05,-5.45e-06,0.0,0 STARLINK-3967,1 52636U 22052AQ  22322.41301899 -.00000545  00000-0 -16144-4 0  9995,2 52636  53.2179 288.7901 0002304  38.3576 321.7580 15.08833539 29111,6917.9,95.438,541.359,538.1709999999998,0.0
52636.0,STARLINK-3967,PAYLOAD,2022-11-19 01:48:35,15.08851118,0.0002412,53.2176,285.8172,40.8176,319.2996,-4.609899999999999e-05,-1.022e-05,0.0,0 STARLINK-3967,1 52636U 22052AQ  22323.07541198 -.00001022  00000-0 -46099-4 0  9999,2 52636  53.2176 285.8172 0002412  40.8176 319.2996 15.08851118 29217,6917.846,95.437,541.38,538.043,0.0
52636.0,STARLINK-3967,PAYLOAD,2022-11-19 09:45:31,15.0883814,0.0002471,53.2185,284.3294,43.8002,316.3185,9.5505e-06,-1.36e-06,0.0,0 STARLINK-3967,1 52636U 22052AQ  22323.40661873 -.00000136  00000-0  95505-5 0  9990,2 52636  53.2185 284.3294 0002471  43.8002 316.3185 15.08838140 29265,6917.886,95.438,541.46,538.0419999999998,0.0
52636.0,STARLINK-3967,PAYLOAD,2022-11-19 14:31:41,15.08838917,0.0002238,53.2174,283.4379,42.3606,317.7559,0.00010367,1.362e-05,0.0,0 STARLINK-3967,1 52636U 22052AQ  22323.60533879  .00001362  00000-0  10367-3 0  9998,2 52636  53.2174 283.4379 0002238  42.3606 317.7559 15.08838917 28915,6917.884,95.438,541.297,538.2,0.0
52636.0,STARLINK-3967,PAYLOAD,2022-11-20 01:39:22,15.08846417,0.0001869,53.2172,281.3559,54.3304,305.7862,0.00026404,3.917e-05,0.0,0 STARLINK-3967,1 52636U 22052AQ  22324.06901379  .00003917  00000-0  26404-3 0  9990,2 52636  53.2172 281.3559 0001869  54.3304 305.7862 15.08846417 29365,6917.861,95.437,541.019,538.433,0.0
52636.0,STARLINK-3967,PAYLOAD,2022-11-20 09:36:18,15.08859582,0.0002286,53.2172,279.8694,41.9206,318.1961,0.00054511,8.403e-05,0.0,0 STARLINK-3967,1 52636U 22052AQ  22324.40020990  .00008403  00000-0  54511-3 0  9994,2 52636  53.2172 279.8694 0002286  41.9206 318.1961 15.08859582 29033,6917.821,95.436,541.2669999999998,538.104,0.0
52636.0,STARLINK-3967,PAYLOAD,2022-11-20 14:22:27,15.088443099999996,0.0002428,53.2171,278.9758,46.4859,313.6335,0.00019978,2.893e-05,0.0,0 STARLINK-3967,1 52636U 22052AQ  22324.59893332  .00002893  00000-0  19978-3 0  9997,2 52636  53.2171 278.9758 0002428  46.4859 313.6335 15.08844310 29066,6917.8669999999975,95.437,541.4119999999998,538.053,0.0
52636.0,STARLINK-3967,PAYLOAD,2022-11-21 01:30:09,15.08836625,0.000207,53.217,276.8939,59.7651,300.3546,-5.5269e-05,-1.168e-05,0.0,0 STARLINK-3967,1 52636U 22052AQ  22325.06261510 -.00001168  00000-0 -55269-4 0  9997,2 52636  53.2170 276.8939 0002070  59.7651 300.3546 15.08836625 29510,6917.891,95.438,541.188,538.3240000000002,0.0
52636.0,STARLINK-3967,PAYLOAD,2022-11-21 07:51:42,15.08840664,0.0002276,53.218,275.7059,41.8056,318.3109,-1.855e-05,-5.84e-06,0.0,0 STARLINK-3967,1 52636U 22052AQ  22325.32757652 -.00000584  00000-0 -18550-4 0  9996,2 52636  53.2180 275.7059 0002276  41.8056 318.3109 15.08840664 29175,6917.878000000002,95.438,541.318,538.169,0.0
52636.0,STARLINK-3967,PAYLOAD,2022-11-21 14:13:15,15.08839785,0.0002331,53.2184,274.5165,41.997,318.1201,-2.1524e-05,-6.31e-06,0.0,0 STARLINK-3967,1 52636U 22052AQ  22325.59253720 -.00000631  00000-0 -21524-4 0  9990,2 52636  53.2184 274.5165 0002331  41.9970 318.1201 15.08839785 29210,6917.880999999999,95.438,541.359,538.133,0.0
52636.0,STARLINK-3967,PAYLOAD,2022-11-22 02:56:19,15.08854331,0.0002267,53.2179,272.1377,41.5799,318.5365,0.00025537,3.78e-05,0.0,0 STARLINK-3967,1 52636U 22052AQ  22326.12244872  .00003780  00000-0  25537-3 0  9991,2 52636  53.2179 272.1377 0002267  41.5799 318.5365 15.08854331 29675,6917.837,95.437,541.27,538.133,0.0
52636.0,STARLINK-3967,PAYLOAD,2022-11-22 14:04:01,15.08844563,0.0002216,53.2179,270.0558,40.2922,319.8234,4.0542e-05,3.57e-06,0.0,0 STARLINK-3967,1 52636U 22052AQ  22326.58613219  .00000357  00000-0  40542-4 0  9997,2 52636  53.2179 270.0558 0002216  40.2922 319.8234 15.08844563 29744,6917.866,95.437,541.264,538.198,0.0
52636.0,STARLINK-3967,PAYLOAD,2022-11-23 02:47:07,15.08836945,0.0002176,53.218,267.6771,39.8734,320.2417,8.1404e-05,1.007e-05,0.0,0 STARLINK-3967,1 52636U 22052AQ  22327.11605663  .00001007  00000-0  81404-4 0  9996,2 52636  53.2180 267.6771 0002176  39.8734 320.2417 15.08836945 29828,6917.89,95.438,541.26,538.249,0.0
52636.0,STARLINK-3967,PAYLOAD,2022-11-23 20:16:21,15.08836026,0.0002193,53.218,264.4063,40.1962,319.9192,-4.1564e-05,-9.5e-06,0.0,0 STARLINK-3967,1 52636U 22052AQ  22327.84469829 -.00000950  00000-0 -41564-4 0  9999,2 52636  53.2180 264.4063 0002193  40.1962 319.9192 15.08836026 29559,6917.893,95.438,541.275,538.24,0.0
52636.0,STARLINK-3967,PAYLOAD,2022-11-24 07:24:03,15.08840878,0.0002188,53.2189,262.3254,39.0167,321.0982,-3.8442e-05,-9e-06,0.0,0 STARLINK-3967,1 52636U 22052AQ  22328.30837822 -.00000900  00000-0 -38442-4 0  9999,2 52636  53.2189 262.3254 0002188  39.0167 321.0982 15.08840878 30008,6917.878000000002,95.437,541.256,538.229,0.0
52636.0,STARLINK-3967,PAYLOAD,2022-11-25 02:28:41,15.08832229,0.0002202,53.2186,258.7573,37.1585,322.9559,5.3994e-05,5.71e-06,0.0,0 STARLINK-3967,1 52636U 22052AQ  22329.10326249  .00000571  00000-0  53994-4 0  9995,2 52636  53.2186 258.7573 0002202  37.1585 322.9559 15.08832229 30122,6917.904,95.438,541.2919999999998,538.246,0.0
